{"type": "FeatureCollection", "features": [ {"type": "Feature", "properties": {"norad_id": 34553, "name": "COSMOS 2251 DEB", "group": "cosmos-2251-debris", "lat": -49.38625125878119, "lon": 144.09904519876167, "alt_km": 701.5157958278514, "timestamp": "2025-12-27T14:26:30.915948+00:00", "meta": {"OBJECT_NAME": "COSMOS 2251 DEB", "OBJECT_ID": "1993-036UP", "EPOCH": "2025-12-26T10:49:08.948064", "MEAN_MOTION": 14.57851907, "ECCENTRICITY": 0.0019035, "INCLINATION": 74.025, "RA_OF_ASC_NODE": 165.8036, "ARG_OF_PERICENTER": 242.4865, "MEAN_ANOMALY": 147.2003, "EPHEMERIS_TYPE": 0, "CLASSIFICATION_TYPE": "U", "NORAD_CAT_ID": 34553, "ELEMENT_SET_NO": 999, "REV_AT_EPOCH": 88296, "BSTAR": 0.0012095, "MEAN_MOTION_DOT": 5.528e-05, "MEAN_MOTION_DDOT": 0}, "tle": {"line1": "1 34553U 93036UP  25360.45079801  .00005528  00000+0  12095-2 0  9999", "line2": "2 34553  74.0250 165.8036 0019035 242.4865 147.2003 14.57851907882965"}}, "geometry": {"type": "Point", "coordinates": [144.09904519876167, -49.38625125878119]}}, {"type": "Feature", "properties": {"norad_id": 34554, "name": "COSMOS 2251 DEB", "group": "cosmos-2251-debris", "lat": 67.18683073416567, "lon": -45.49927206929655, "alt_km": 761.8947789714266, "timestamp": "2025-12-27T14:26:30.915959+00:00", "meta": {"OBJECT_NAME": "COSMOS 2251 DEB", "OBJECT_ID": "1993-036UQ", "EPOCH": "2025-12-26T18:12:27.499968", "MEAN_MOTION": 14.37965556, "ECCENTRICITY": 0.00235796, "INCLINATION": 74.039, "RA_OF_ASC_NODE": 273.1783, "ARG_OF_PERICENTER": 332.916, "MEAN_ANOMALY": 57.668, "EPHEMERIS_TYPE": 0, "CLASSIFICATION_TYPE": "U", "NORAD_CAT_ID": 34554, "ELEMENT_SET_NO": 999, "REV_AT_EPOCH": 87957, "BSTAR": 0.00031632746, "MEAN_MOTION_DOT": 9.33e-06, "MEAN_MOTION_DDOT": 0}, "tle": {"line1": "1 34554U 93036UQ  25360.75865162  .00000933  00000+0  31633-3 0  9991", "line2": "2 34554  74.0390 273.1783 0023579 332.9160  57.6680 14.37965556879576"}}, "geometry": {"type": "Point", "coordinates": [-45.49927206929655, 67.18683073416567]}}, {"type": "Feature", "properties": {"norad_id": 34556, "name": "COSMOS 2251 DEB", "group": "cosmos-2251-debris", "lat": -32.56250035345356, "lon": -73.81555516836727, "alt_km": 638.521722739506, "timestamp": "2025-12-27T14:26:30.915970+00:00", "meta": {"OBJECT_NAME": "COSMOS 2251 DEB", "OBJECT_ID": "1993-036US", "EPOCH": "2025-12-27T05:28:06.781728", "MEAN_MOTION": 14.78251509, "ECCENTRICITY": 0.00059913, "INCLINATION": 74.0153, "RA_OF_ASC_NODE": 96.3717, "ARG_OF_PERICENTER": 154.1604, "MEAN_ANOMALY": 230.8121, "EPHEMERIS_TYPE": 0, "CLASSIFICATION_TYPE": "U", "NORAD_CAT_ID": 34556, "ELEMENT_SET_NO": 999, "REV_AT_EPOCH": 88543, "BSTAR": 0.0024654056, "MEAN_MOTION_DOT": 0.00017918, "MEAN_MOTION_DDOT": 0}, "tle": {"line1": "1 34556U 93036US  25361.22785627  .00017918  00000+0  24654-2 0  9998", "line2": "2 34556  74.0153  96.3717 0005991 154.1604 230.8121 14.78251509885430"}}, "geometry": {"type": "Point", "coordinates": [-73.81555516836727, -32.56250035345356]}}, {"type": "Feature", "properties": {"norad_id": 34560, "name": "COSMOS 2251 DEB", "group": "cosmos-2251-debris", "lat": 16.718664710918237, "lon": -71.76106553448709, "alt_km": 645.3759656045404, "timestamp": "2025-12-27T14:26:30.915981+00:00", "meta": {"OBJECT_NAME": "COSMOS 2251 DEB", "OBJECT_ID": "1993-036UW", "EPOCH": "2025-12-27T01:27:56.372832", "MEAN_MOTION": 14.72514368, "ECCENTRICITY": 0.00134839, "INCLINATION": 74.0165, "RA_OF_ASC_NODE": 114.2311, "ARG_OF_PERICENTER": 197.7057, "MEAN_ANOMALY": 339.8714, "EPHEMERIS_TYPE": 0, "CLASSIFICATION_TYPE": "U", "NORAD_CAT_ID": 34560, "ELEMENT_SET_NO": 999, "REV_AT_EPOCH": 88462, "BSTAR": 0.0027269728, "MEAN_MOTION_DOT": 0.0001736, "MEAN_MOTION_DDOT": 0}, "tle": {"line1": "1 34560U 93036UW  25361.06106913  .00017360  00000+0  27270-2 0  9998", "line2": "2 34560  74.0165 114.2311 0013483 197.7057 339.8714 14.72514368884625"}}, "geometry": {"type": "Point", "coordinates": [-71.76106553448709, 16.718664710918237]}}, {"type": "Feature", "properties": {"norad_id": 34563, "name": "COSMOS 2251 DEB", "group": "cosmos-2251-debris", "lat": -10.656290448538542, "lon": 172.8727876147318, "alt_km": 739.0734310147773, "timestamp": "2025-12-27T14:26:30.915991+00:00", "meta": {"OBJECT_NAME": "COSMOS 2251 DEB", "OBJECT_ID": "1993-036UZ", "EPOCH": "2025-12-26T18:37:48.023328", "MEAN_MOTION": 14.46553942, "ECCENTRICITY": 0.00139023, "INCLINATION": 74.0365, "RA_OF_ASC_NODE": 177.5011, "ARG_OF_PERICENTER": 270.8505, "MEAN_ANOMALY": 100.91, "EPHEMERIS_TYPE": 0, "CLASSIFICATION_TYPE": "U", "NORAD_CAT_ID": 34563, "ELEMENT_SET_NO": 999, "REV_AT_EPOCH": 88400, "BSTAR": 0.00049252066, "MEAN_MOTION_DOT": 1.75e-05, "MEAN_MOTION_DDOT": 0}, "tle": {"line1": "1 34563U 93036UZ  25360.77625027  .00001750  00000+0  49252-3 0  9991", "line2": "2 34563  74.0365 177.5011 0013902 270.8505 100.9100 14.46553942884006"}}, "geometry": {"type": "Point", "coordinates": [172.8727876147318, -10.656290448538542]}}, {"type": "Feature", "properties": {"norad_id": 34564, "name": "COSMOS 2251 DEB", "group": "cosmos-2251-debris", "lat": 3.7865966991972373, "lon": 29.429379505911587, "alt_km": 768.3044045771194, "timestamp": "2025-12-27T14:26:30.916002+00:00", "meta": {"OBJECT_NAME": "COSMOS 2251 DEB", "OBJECT_ID": "1993-036VA", "EPOCH": "2025-12-26T21:03:32.956128", "MEAN_MOTION": 14.40712431, "ECCENTRICITY": 0.0019493, "INCLINATION": 74.031, "RA_OF_ASC_NODE": 211.855, "ARG_OF_PERICENTER": 313.8248, "MEAN_ANOMALY": 67.2563, "EPHEMERIS_TYPE": 0, "CLASSIFICATION_TYPE": "U", "NORAD_CAT_ID": 34564, "ELEMENT_SET_NO": 999, "REV_AT_EPOCH": 88210, "BSTAR": 0.0002286667, "MEAN_MOTION_DOT": 7.06e-06, "MEAN_MOTION_DDOT": 0}, "tle": {"line1": "1 34564U 93036VA  25360.87746477  .00000706  00000+0  22867-3 0  9999", "line2": "2 34564  74.0310 211.8550 0019493 313.8248  67.2563 14.40712431882101"}}, "geometry": {"type": "Point", "coordinates": [29.429379505911587, 3.7865966991972373]}}, {"type": "Feature", "properties": {"norad_id": 34567, "name": "COSMOS 2251 DEB", "group": "cosmos-2251-debris", "lat": 47.54526722510915, "lon": 148.25841665171433, "alt_km": 853.5692664736107, "timestamp": "2025-12-27T14:26:30.916012+00:00", "meta": {"OBJECT_NAME": "COSMOS 2251 DEB", "OBJECT_ID": "1993-036VD", "EPOCH": "2025-12-26T18:30:40.311360", "MEAN_MOTION": 14.24032429, "ECCENTRICITY": 0.00740336, "INCLINATION": 74.0413, "RA_OF_ASC_NODE": 131.5262, "ARG_OF_PERICENTER": 202.7595, "MEAN_ANOMALY": 272.239, "EPHEMERIS_TYPE": 0, "CLASSIFICATION_TYPE": "U", "NORAD_CAT_ID": 34567, "ELEMENT_SET_NO": 999, "REV_AT_EPOCH": 87324, "BSTAR": 0.00027646321, "MEAN_MOTION_DOT": 6.28e-06, "MEAN_MOTION_DDOT": 0}, "tle": {"line1": "1 34567U 93036VD  25360.77129990  .00000628  00000+0  27646-3 0  9999", "line2": "2 34567  74.0413 131.5262 0074033 202.7595 272.2390 14.24032429873243"}}, "geometry": {"type": "Point", "coordinates": [148.25841665171433, 47.54526722510915]}}, {"type": "Feature", "properties": {"norad_id": 34569, "name": "COSMOS 2251 DEB", "group": "cosmos-2251-debris", "lat": -68.25923501947877, "lon": 37.31885984454929, "alt_km": 836.4169442784314, "timestamp": "2025-12-27T14:26:30.916022+00:00", "meta": {"OBJECT_NAME": "COSMOS 2251 DEB", "OBJECT_ID": "1993-036VF", "EPOCH": "2025-12-27T06:47:51.644832", "MEAN_MOTION": 14.2478831, "ECCENTRICITY": 0.01579231, "INCLINATION": 73.9895, "RA_OF_ASC_NODE": 171.8379, "ARG_OF_PERICENTER": 356.915, "MEAN_ANOMALY": 66.8709, "EPHEMERIS_TYPE": 0, "CLASSIFICATION_TYPE": "U", "NORAD_CAT_ID": 34569, "ELEMENT_SET_NO": 999, "REV_AT_EPOCH": 87175, "BSTAR": 0.00049613475, "MEAN_MOTION_DOT": 1.29e-05, "MEAN_MOTION_DDOT": 0}, "tle": {"line1": "1 34569U 93036VF  25361.28323663  .00001290  00000+0  49613-3 0  9995", "line2": "2 34569  73.9895 171.8379 0157923 356.9150  66.8709 14.24788310871754"}}, "geometry": {"type": "Point", "coordinates": [37.31885984454929, -68.25923501947877]}}, {"type": "Feature", "properties": {"norad_id": 34570, "name": "COSMOS 2251 DEB", "group": "cosmos-2251-debris", "lat": -62.27324562097095, "lon": 159.2400874141617, "alt_km": 1003.9041872688113, "timestamp": "2025-12-27T14:26:30.916033+00:00", "meta": {"OBJECT_NAME": "COSMOS 2251 DEB", "OBJECT_ID": "1993-036VG", "EPOCH": "2025-12-27T07:01:34.646304", "MEAN_MOTION": 13.99845423, "ECCENTRICITY": 0.01903613, "INCLINATION": 73.9553, "RA_OF_ASC_NODE": 192.973, "ARG_OF_PERICENTER": 72.2007, "MEAN_ANOMALY": 105.7081, "EPHEMERIS_TYPE": 0, "CLASSIFICATION_TYPE": "U", "NORAD_CAT_ID": 34570, "ELEMENT_SET_NO": 999, "REV_AT_EPOCH": 85804, "BSTAR": 0.0005273336, "MEAN_MOTION_DOT": 8.81e-06, "MEAN_MOTION_DDOT": 0}, "tle": {"line1": "1 34570U 93036VG  25361.29276211  .00000881  00000+0  52733-3 0  9996", "line2": "2 34570  73.9553 192.9730 0190361  72.2007 105.7081 13.99845423858047"}}, "geometry": {"type": "Point", "coordinates": [159.2400874141617, -62.27324562097095]}}, {"type": "Feature", "properties": {"norad_id": 34571, "name": "COSMOS 2251 DEB", "group": "cosmos-2251-debris", "lat": -64.5866693089549, "lon": 11.615635498355708, "alt_km": 714.773420868306, "timestamp": "2025-12-27T14:26:30.916043+00:00", "meta": {"OBJECT_NAME": "COSMOS 2251 DEB", "OBJECT_ID": "1993-036VH", "EPOCH": "2025-12-24T20:40:26.923008", "MEAN_MOTION": 14.49017935, "ECCENTRICITY": 0.0064888, "INCLINATION": 74.0401, "RA_OF_ASC_NODE": 159.7142, "ARG_OF_PERICENTER": 192.1385, "MEAN_ANOMALY": 167.8215, "EPHEMERIS_TYPE": 0, "CLASSIFICATION_TYPE": "U", "NORAD_CAT_ID": 34571, "ELEMENT_SET_NO": 999, "REV_AT_EPOCH": 87469, "BSTAR": 0.003002, "MEAN_MOTION_DOT": 0.00011689, "MEAN_MOTION_DDOT": 0}, "tle": {"line1": "1 34571U 93036VH  25358.86142272  .00011689  00000+0  30020-2 0  9997", "line2": "2 34571  74.0401 159.7142 0064888 192.1385 167.8215 14.49017935874697"}}, "geometry": {"type": "Point", "coordinates": [11.615635498355708, -64.5866693089549]}}]}